STARLETTE               
1 07646U 75010A   26117.26889439 -.00000124  00000+0  12956-4 0  9996
2 07646  49.8255 305.5780 0205658 254.8251 102.9815 13.82349707587492
LAGEOS 1                
1 08820U 76039A   26117.19151034  .00000008  00000+0  00000+0 0  9990
2 08820 109.8064 161.8865 0044672 313.1972  67.1357  6.38664747909886
AJISAI (EGS)            
1 16908U 86061A   26117.29806132 -.00000078  00000+0  14000-3 0  9996
2 16908  50.0098 303.8796 0011428  51.6327   3.6800 12.44516023474059
COSMOS 1989 (ETALON 1)  
1 19751U 89001C   26117.26144429 -.00000007  00000+0  00000+0 0  9996
2 19751  64.9179  73.9360 0023355 217.6557 268.9736  2.13155967290281
COSMOS 2024 (ETALON 2)  
1 20026U 89039C   26117.14098259 -.00000029  00000+0  00000+0 0  9994
2 20026  64.9662 312.2941 0020542 212.8288 330.1171  2.13204574287417
LAGEOS 2                
1 22195U 92070B   26111.22194309 -.00000009  00000+0  00000+0 0  9996
2 22195  52.6637 302.6665 0137666 162.3863 358.4565  6.47293633791732
STELLA                  
1 22824U 93061B   26117.31405708 -.00000026  00000+0  77312-5 0  9995
2 22824  98.7756 181.3742 0006917  33.7604  79.6292 14.27469002697512
LARETS                  
1 27944U 03042F   26117.26098645  .00000077  00000+0  24454-4 0  9998
2 27944  98.4101 278.4125 0012018 189.5229 170.5747 14.63859698205915
LARES                   
1 38077U 12006A   26117.28208981 -.00000038  00000+0  16537-5 0  9997
2 38077  69.4930  19.1967 0006358  89.9158 270.2597 12.54931947650685
LARES-2                 
1 53105U 22080A   26114.95312861 -.00000010  00000+0  00000+0 0  9995
2 53105  70.1721 323.5864 0005358 346.5295  13.5246  6.38965121 88266
